LEMUR-2-PETERG          
1 42841U 17042S   26068.48235713  .00023240  00000+0  81076-3 0  9993
2 42841  97.3980 253.6596 0003700 341.6938  18.4169 15.29611459473171
STARLINK-2161           
1 47747U 21017AB  26068.61633199  .00006296  00000+0  22455-3 0  9993
2 47747  53.1612 194.2369 0001234  89.9995 270.1148 15.30197133278005
