[{"OBJECT_NAME":"LEMUR-2-PETERG","OBJECT_ID":"2017-042S","EPOCH":"2026-03-09T11:34:35.656032","MEAN_MOTION":15.29611459,"ECCENTRICITY":0.00037,"INCLINATION":97.398,"RA_OF_ASC_NODE":253.6596,"ARG_OF_PERICENTER":341.6938,"MEAN_ANOMALY":18.4169,"EPHEMERIS_TYPE":0,"CLASSIFICATION_TYPE":"U","NORAD_CAT_ID":42841,"ELEMENT_SET_NO":999,"REV_AT_EPOCH":47317,"BSTAR":0.00081076471,"MEAN_MOTION_DOT":0.0002324,"MEAN_MOTION_DDOT":0},{"OBJECT_NAME":"STARLINK-2161","OBJECT_ID":"2021-017AB","EPOCH":"2026-03-09T14:47:31.083936","MEAN_MOTION":15.30197133,"ECCENTRICITY":0.0001234,"INCLINATION":53.1612,"RA_OF_ASC_NODE":194.2369,"ARG_OF_PERICENTER":89.9995,"MEAN_ANOMALY":270.1148,"EPHEMERIS_TYPE":0,"CLASSIFICATION_TYPE":"U","NORAD_CAT_ID":47747,"ELEMENT_SET_NO":999,"REV_AT_EPOCH":27800,"BSTAR":0.00022455,"MEAN_MOTION_DOT":6.296e-5,"MEAN_MOTION_DDOT":0}]
